start=new Date('2023-02-14T00:00:00.000Z').valueOf();
sats=[{"DECAY_DATE":null,"CLASSIFICATION_TYPE":"U","PERIAPSIS":"545.895","MEAN_ELEMENT_THEORY":"SGP4","COUNTRY_CODE":"US","TIME_SYSTEM":"UTC","TLE_LINE2":"2 48448  53.0518 169.8427 0001821  79.7101 280.4093 15.06418707 99076","ARG_OF_PERICENTER":"79.7101","PERIOD":"95.591","OBJECT_NAME":"STARLINK-2632","MEAN_MOTION_DOT":"0.00037187","ELEMENT_SET_NO":"999","RA_OF_ASC_NODE":"169.8427","ECCENTRICITY":"0.00018210","BSTAR":"0.00250100000000","RCS_SIZE":"LARGE","MEAN_MOTION_DDOT":"0.0000000000000","MEAN_MOTION":"15.06418707","OBJECT_TYPE":"PAYLOAD","LAUNCH_DATE":"2021-05-09","SITE":"AFETR","FILE":"3789712","INCLINATION":"53.0518","OBJECT_ID":"2021-040W","NORAD_CAT_ID":"48448","REF_FRAME":"TEME","EPOCH":"2023-02-13T14:41:18.898656","REV_AT_EPOCH":"9907","APOAPSIS":"548.417","MEAN_ANOMALY":"280.4093","EPHEMERIS_TYPE":"0","CENTER_NAME":"EARTH","SEMIMAJOR_AXIS":"6925.291","TLE_LINE1":"1 48448U 21040W   23044.61202429  .00037187  00000-0  25010-2 0  9990","GP_ID":"225336208"},{"ELEMENT_SET_NO":"999","MEAN_MOTION_DOT":"0.00020600","OBJECT_NAME":"STARLINK-2655","PERIOD":"95.591","ARG_OF_PERICENTER":"92.0858","TLE_LINE2":"2 48449  53.0533 169.0782 0000746  92.0858 268.0217 15.06415732 99112","COUNTRY_CODE":"US","TIME_SYSTEM":"UTC","MEAN_ELEMENT_THEORY":"SGP4","PERIAPSIS":"546.649","CLASSIFICATION_TYPE":"U","DECAY_DATE":null,"FILE":"3789712","SITE":"AFETR","LAUNCH_DATE":"2021-05-09","OBJECT_TYPE":"PAYLOAD","RCS_SIZE":"LARGE","MEAN_MOTION_DDOT":"0.0000000000000","MEAN_MOTION":"15.06415732","BSTAR":"0.00139720000000","ECCENTRICITY":"0.00007460","RA_OF_ASC_NODE":"169.0782","REV_AT_EPOCH":"9911","APOAPSIS":"547.682","EPOCH":"2023-02-13T18:46:49.540512","REF_FRAME":"TEME","NORAD_CAT_ID":"48449","INCLINATION":"53.0533","OBJECT_ID":"2021-040X","GP_ID":"225336212","TLE_LINE1":"1 48449U 21040X   23044.78251783  .00020600  00000-0  13972-2 0  9992","SEMIMAJOR_AXIS":"6925.300","CENTER_NAME":"EARTH","EPHEMERIS_TYPE":"0","MEAN_ANOMALY":"268.0217"},{"FILE":"3789713","SITE":"AFETR","RCS_SIZE":"LARGE","MEAN_MOTION_DDOT":"0.0000000000000","MEAN_MOTION":"15.06408579","OBJECT_TYPE":"PAYLOAD","LAUNCH_DATE":"2021-05-09","ECCENTRICITY":"0.00012530","BSTAR":"0.00010172000000","RA_OF_ASC_NODE":"169.3933","OBJECT_NAME":"STARLINK-2660","ELEMENT_SET_NO":"999","MEAN_MOTION_DOT":"0.00001234","TLE_LINE2":"2 48450  53.0539 169.3933 0001253  68.5993 291.5129 15.06408579 99106","ARG_OF_PERICENTER":"68.5993","PERIOD":"95.592","CLASSIFICATION_TYPE":"U","MEAN_ELEMENT_THEORY":"SGP4","PERIAPSIS":"546.320","TIME_SYSTEM":"UTC","COUNTRY_CODE":"US","DECAY_DATE":null,"CENTER_NAME":"EARTH","SEMIMAJOR_AXIS":"6925.322","TLE_LINE1":"1 48450U 21040Y   23044.71248376  .00001234  00000-0  10172-3 0  9993","GP_ID":"225336724","MEAN_ANOMALY":"291.5129","EPHEMERIS_TYPE":"0","EPOCH":"2023-02-13T17:05:58.596864","APOAPSIS":"548.055","REV_AT_EPOCH":"9910","NORAD_CAT_ID":"48450","REF_FRAME":"TEME","INCLINATION":"53.0539","OBJECT_ID":"2021-040Y"},{"OBJECT_ID":"2021-040Z","INCLINATION":"53.0510","EPOCH":"2023-02-13T09:06:55.990944","REV_AT_EPOCH":"9777","APOAPSIS":"548.058","NORAD_CAT_ID":"48451","REF_FRAME":"TEME","SEMIMAJOR_AXIS":"6925.358","CENTER_NAME":"EARTH","GP_ID":"225323497","TLE_LINE1":"1 48451U 21040Z   23044.37981471 -.00001447  00000-0 -78274-4 0  9992","MEAN_ANOMALY":"275.9740","EPHEMERIS_TYPE":"0","MEAN_ELEMENT_THEORY":"SGP4","PERIAPSIS":"546.389","CLASSIFICATION_TYPE":"U","COUNTRY_CODE":"US","TIME_SYSTEM":"UTC","DECAY_DATE":null,"OBJECT_NAME":"STARLINK-2652","MEAN_MOTION_DOT":"-0.00001447","ELEMENT_SET_NO":"999","TLE_LINE2":"2 48451  53.0510 170.9212 0001205  84.1386 275.9740 15.06396908 97779","PERIOD":"95.592","ARG_OF_PERICENTER":"84.1386","ECCENTRICITY":"0.00012050","BSTAR":"-0.00007827400000","RA_OF_ASC_NODE":"170.9212","SITE":"AFETR","FILE":"3789366","MEAN_MOTION":"15.06396908","RCS_SIZE":"LARGE","MEAN_MOTION_DDOT":"0.0000000000000","OBJECT_TYPE":"PAYLOAD","LAUNCH_DATE":"2021-05-09"},{"MEAN_ANOMALY":"288.4001","EPHEMERIS_TYPE":"0","SEMIMAJOR_AXIS":"6925.393","CENTER_NAME":"EARTH","GP_ID":"225323749","TLE_LINE1":"1 48452U 21040AA  23044.44340564  .00019951  00000-0  13550-2 0  9994","OBJECT_ID":"2021-040AA","INCLINATION":"53.0509","NORAD_CAT_ID":"48452","REF_FRAME":"TEME","EPOCH":"2023-02-13T10:38:30.247296","REV_AT_EPOCH":"9778","APOAPSIS":"548.215","RA_OF_ASC_NODE":"170.5742","ECCENTRICITY":"0.00013820","BSTAR":"0.00135500000000","MEAN_MOTION":"15.06385552","RCS_SIZE":"LARGE","MEAN_MOTION_DDOT":"0.0000000000000","LAUNCH_DATE":"2021-05-09","OBJECT_TYPE":"PAYLOAD","SITE":"AFETR","FILE":"3789366","DECAY_DATE":null,"PERIAPSIS":"546.301","MEAN_ELEMENT_THEORY":"SGP4","CLASSIFICATION_TYPE":"U","TIME_SYSTEM":"UTC","COUNTRY_CODE":"US","TLE_LINE2":"2 48452  53.0509 170.5742 0001382  71.7138 288.4001 15.06385552 97788","PERIOD":"95.593","ARG_OF_PERICENTER":"71.7138","OBJECT_NAME":"STARLINK-2703","MEAN_MOTION_DOT":"0.00019951","ELEMENT_SET_NO":"999"},{"EPOCH":"2023-02-13T15:19:49.698624","APOAPSIS":"548.098","REV_AT_EPOCH":"9909","NORAD_CAT_ID":"48453","REF_FRAME":"TEME","INCLINATION":"53.0513","OBJECT_ID":"2021-040AB","SEMIMAJOR_AXIS":"6925.303","CENTER_NAME":"EARTH","GP_ID":"225336720","TLE_LINE1":"1 48453U 21040AB  23044.63876966  .00034464  00000-0  23204-2 0  9999","MEAN_ANOMALY":"260.8749","EPHEMERIS_TYPE":"0","OBJECT_NAME":"STARLINK-2620","MEAN_MOTION_DOT":"0.00034464","ELEMENT_SET_NO":"999","TLE_LINE2":"2 48453  53.0513 169.7254 0001342  99.2392 260.8749 15.06414785 99095","PERIOD":"95.591","ARG_OF_PERICENTER":"99.2392","MEAN_ELEMENT_THEORY":"SGP4","PERIAPSIS":"546.239","CLASSIFICATION_TYPE":"U","COUNTRY_CODE":"US","TIME_SYSTEM":"UTC","DECAY_DATE":null,"FILE":"3789713","SITE":"AFETR","RCS_SIZE":"LARGE","MEAN_MOTION":"15.06414785","MEAN_MOTION_DDOT":"0.0000000000000","OBJECT_TYPE":"PAYLOAD","LAUNCH_DATE":"2021-05-09","ECCENTRICITY":"0.00013420","BSTAR":"0.00232040000000","RA_OF_ASC_NODE":"169.7254"},{"LAUNCH_DATE":"2021-05-09","OBJECT_TYPE":"PAYLOAD","MEAN_MOTION_DDOT":"0.0000000000000","RCS_SIZE":"LARGE","MEAN_MOTION":"15.06456871","SITE":"AFETR","FILE":"3789713","RA_OF_ASC_NODE":"169.7373","BSTAR":"0.00130680000000","ECCENTRICITY":"0.00012810","PERIOD":"95.589","ARG_OF_PERICENTER":"69.7561","TLE_LINE2":"2 48454  53.0524 169.7373 0001281  69.7561 290.3566 15.06456871 99099","MEAN_MOTION_DOT":"0.00019267","ELEMENT_SET_NO":"999","OBJECT_NAME":"STARLINK-2654","DECAY_DATE":null,"TIME_SYSTEM":"UTC","COUNTRY_CODE":"US","MEAN_ELEMENT_THEORY":"SGP4","PERIAPSIS":"546.152","CLASSIFICATION_TYPE":"U","EPHEMERIS_TYPE":"0","MEAN_ANOMALY":"290.3566","GP_ID":"225336728","TLE_LINE1":"1 48454U 21040AC  23044.63505638  .00019267  00000-0  13068-2 0  9996","CENTER_NAME":"EARTH","SEMIMAJOR_AXIS":"6925.174","REF_FRAME":"TEME","NORAD_CAT_ID":"48454","APOAPSIS":"547.926","REV_AT_EPOCH":"9909","EPOCH":"2023-02-13T15:14:28.871232","INCLINATION":"53.0524","OBJECT_ID":"2021-040AC"},{"TLE_LINE1":"1 48455U 21040AD  23044.76408878  .00017849  00000-0  12135-2 0  9997","GP_ID":"225336722","SEMIMAJOR_AXIS":"6925.288","CENTER_NAME":"EARTH","EPHEMERIS_TYPE":"0","MEAN_ANOMALY":"258.8167","APOAPSIS":"547.961","REV_AT_EPOCH":"9843","EPOCH":"2023-02-13T18:20:17.270592","REF_FRAME":"TEME","NORAD_CAT_ID":"48455","INCLINATION":"53.0527","OBJECT_ID":"2021-040AD","SITE":"AFETR","FILE":"3789713","OBJECT_TYPE":"PAYLOAD","LAUNCH_DATE":"2021-05-09","MEAN_MOTION_DDOT":"0.0000000000000","RCS_SIZE":"LARGE","MEAN_MOTION":"15.06419899","BSTAR":"0.00121350000000","ECCENTRICITY":"0.00011680","RA_OF_ASC_NODE":"169.1601","MEAN_MOTION_DOT":"0.00017849","ELEMENT_SET_NO":"999","OBJECT_NAME":"STARLINK-2497","ARG_OF_PERICENTER":"101.2954","PERIOD":"95.591","TLE_LINE2":"2 48455  53.0527 169.1601 0001168 101.2954 258.8167 15.06419899 98435","TIME_SYSTEM":"UTC","COUNTRY_CODE":"US","CLASSIFICATION_TYPE":"U","PERIAPSIS":"546.344","MEAN_ELEMENT_THEORY":"SGP4","DECAY_DATE":null},{"NORAD_CAT_ID":"48456","REF_FRAME":"TEME","EPOCH":"2023-02-13T16:39:26.619840","REV_AT_EPOCH":"9842","APOAPSIS":"548.095","OBJECT_ID":"2021-040AE","INCLINATION":"53.0528","MEAN_ANOMALY":"282.6042","EPHEMERIS_TYPE":"0","CENTER_NAME":"EARTH","SEMIMAJOR_AXIS":"6925.291","TLE_LINE1":"1 48456U 21040AE  23044.69405810  .00032243  00000-0  21725-2 0  9993","GP_ID":"225336222","TLE_LINE2":"2 48456  53.0528 169.4766 0001356  77.5099 282.6042 15.06418938 98425","ARG_OF_PERICENTER":"77.5099","PERIOD":"95.591","OBJECT_NAME":"STARLINK-2508","MEAN_MOTION_DOT":"0.00032243","ELEMENT_SET_NO":"999","DECAY_DATE":null,"CLASSIFICATION_TYPE":"U","PERIAPSIS":"546.216","MEAN_ELEMENT_THEORY":"SGP4","COUNTRY_CODE":"US","TIME_SYSTEM":"UTC","MEAN_MOTION_DDOT":"0.0000000000000","RCS_SIZE":"LARGE","MEAN_MOTION":"15.06418938","LAUNCH_DATE":"2021-05-09","OBJECT_TYPE":"PAYLOAD","SITE":"AFETR","FILE":"3789713","RA_OF_ASC_NODE":"169.4766","ECCENTRICITY":"0.00013560","BSTAR":"0.00217250000000"},{"FILE":"3788964","SITE":"AFETR","MEAN_MOTION_DDOT":"0.0000000000000","RCS_SIZE":"LARGE","MEAN_MOTION":"15.06394401","LAUNCH_DATE":"2021-05-09","OBJECT_TYPE":"PAYLOAD","ECCENTRICITY":"0.00014540","BSTAR":"0.00006472900000","RA_OF_ASC_NODE":"175.3982","OBJECT_NAME":"STARLINK-2698","MEAN_MOTION_DOT":"0.00000683","ELEMENT_SET_NO":"999","TLE_LINE2":"2 48458  53.0528 175.3982 0001454  77.9553 282.1599 15.06394401 98263","PERIOD":"95.592","ARG_OF_PERICENTER":"77.9553","MEAN_ELEMENT_THEORY":"SGP4","PERIAPSIS":"546.224","CLASSIFICATION_TYPE":"U","TIME_SYSTEM":"UTC","COUNTRY_CODE":"US","DECAY_DATE":null,"SEMIMAJOR_AXIS":"6925.366","CENTER_NAME":"EARTH","GP_ID":"225292920","TLE_LINE1":"1 48458U 21040AG  23044.50747256  .00000683  00000-0  64729-4 0  9994","MEAN_ANOMALY":"282.1599","EPHEMERIS_TYPE":"0","EPOCH":"2023-02-13T12:10:45.629184","APOAPSIS":"548.238","REV_AT_EPOCH":"9826","NORAD_CAT_ID":"48458","REF_FRAME":"TEME","OBJECT_ID":"2021-040AG","INCLINATION":"53.0528"}];
